[
  {
    "OBJECT_NAME": "MOZHAYETS 4 (RS-22)",
    "OBJECT_ID": "2003-042A",
    "EPOCH": "2025-06-14T18:42:48.717792",
    "MEAN_MOTION": 14.72366901,
    "ECCENTRICITY": 0.0011336,
    "INCLINATION": 98.3284,
    "RA_OF_ASC_NODE": 335.3567,
    "ARG_OF_PERICENTER": 0.3903,
    "MEAN_ANOMALY": 126.7743,
    "EPHEMERIS_TYPE": 0,
    "CLASSIFICATION_TYPE": "U",
    "NORAD_CAT_ID": 27939,
    "ELEMENT_SET_NO": 999,
    "REV_AT_EPOCH": 16159,
    "BSTAR": 0.00016379,
    "MEAN_MOTION_DOT": 9.84e-06,
    "MEAN_MOTION_DDOT": 0
  },
  {
    "OBJECT_NAME": "CUBESAT XI-V",
    "OBJECT_ID": "2005-043F",
    "EPOCH": "2025-06-14T08:20:36.919392",
    "MEAN_MOTION": 14.71030013,
    "ECCENTRICITY": 0.0013257,
    "INCLINATION": 98.2507,
    "RA_OF_ASC_NODE": 309.7573,
    "ARG_OF_PERICENTER": 293.7885,
    "MEAN_ANOMALY": 66.1931,
    "EPHEMERIS_TYPE": 0,
    "CLASSIFICATION_TYPE": "U",
    "NORAD_CAT_ID": 28895,
    "ELEMENT_SET_NO": 999,
    "REV_AT_EPOCH": 4764,
    "BSTAR": 0.00024274,
    "MEAN_MOTION_DOT": 1.44e-05,
    "MEAN_MOTION_DDOT": 0
  },
  {
    "OBJECT_NAME": "CUTE-1.7+APD II (CO-65)",
    "OBJECT_ID": "2008-021C",
    "EPOCH": "2025-06-14T14:14:40.128000",
    "MEAN_MOTION": 15.04479776,
    "ECCENTRICITY": 0.000949,
    "INCLINATION": 97.7861,
    "RA_OF_ASC_NODE": 136.7931,
    "ARG_OF_PERICENTER": 186.0254,
    "MEAN_ANOMALY": 174.0859,
    "EPHEMERIS_TYPE": 0,
    "CLASSIFICATION_TYPE": "U",
    "NORAD_CAT_ID": 32785,
    "ELEMENT_SET_NO": 999,
    "REV_AT_EPOCH": 92983,
    "BSTAR": 0.00036781,
    "MEAN_MOTION_DOT": 5.089e-05,
    "MEAN_MOTION_DDOT": 0
  },
  {
    "OBJECT_NAME": "SEEDS II (CO-66)",
    "OBJECT_ID": "2008-021J",
    "EPOCH": "2025-06-14T12:19:06.090816",
    "MEAN_MOTION": 15.18820819,
    "ECCENTRICITY": 0.0005167,
    "INCLINATION": 97.7274,
    "RA_OF_ASC_NODE": 145.6642,
    "ARG_OF_PERICENTER": 132.0127,
    "MEAN_ANOMALY": 228.1548,
    "EPHEMERIS_TYPE": 0,
    "CLASSIFICATION_TYPE": "U",
    "NORAD_CAT_ID": 32791,
    "ELEMENT_SET_NO": 999,
    "REV_AT_EPOCH": 93124,
    "BSTAR": 0.0005176,
    "MEAN_MOTION_DOT": 0.00010714,
    "MEAN_MOTION_DDOT": 0
  },
  {
    "OBJECT_NAME": "YUBILEINY (RS-30)",
    "OBJECT_ID": "2008-025A",
    "EPOCH": "2025-06-14T20:59:24.056736",
    "MEAN_MOTION": 12.43165241,
    "ECCENTRICITY": 0.0019853,
    "INCLINATION": 82.5027,
    "RA_OF_ASC_NODE": 223.8849,
    "ARG_OF_PERICENTER": 38.0214,
    "MEAN_ANOMALY": 322.2262,
    "EPHEMERIS_TYPE": 0,
    "CLASSIFICATION_TYPE": "U",
    "NORAD_CAT_ID": 32953,
    "ELEMENT_SET_NO": 999,
    "REV_AT_EPOCH": 77419,
    "BSTAR": 0.00016789,
    "MEAN_MOTION_DOT": 3.3e-07,
    "MEAN_MOTION_DDOT": 0
  },
  {
    "OBJECT_NAME": "KKS-1 (KISEKI)",
    "OBJECT_ID": "2009-002H",
    "EPOCH": "2025-06-14T20:36:28.555776",
    "MEAN_MOTION": 14.81640352,
    "ECCENTRICITY": 0.0009229,
    "INCLINATION": 98.1203,
    "RA_OF_ASC_NODE": 77.9964,
    "ARG_OF_PERICENTER": 46.8526,
    "MEAN_ANOMALY": 313.3456,
    "EPHEMERIS_TYPE": 0,
    "CLASSIFICATION_TYPE": "U",
    "NORAD_CAT_ID": 33499,
    "ELEMENT_SET_NO": 999,
    "REV_AT_EPOCH": 88220,
    "BSTAR": 0.00018652,
    "MEAN_MOTION_DOT": 1.413e-05,
    "MEAN_MOTION_DDOT": 0
  },
  {
    "OBJECT_NAME": "SWISSCUBE",
    "OBJECT_ID": "2009-051B",
    "EPOCH": "2025-06-14T10:09:46.521504",
    "MEAN_MOTION": 14.61349459,
    "ECCENTRICITY": 0.0005606,
    "INCLINATION": 98.43,
    "RA_OF_ASC_NODE": 61.7492,
    "ARG_OF_PERICENTER": 280.5063,
    "MEAN_ANOMALY": 79.5505,
    "EPHEMERIS_TYPE": 0,
    "CLASSIFICATION_TYPE": "U",
    "NORAD_CAT_ID": 35932,
    "ELEMENT_SET_NO": 999,
    "REV_AT_EPOCH": 83542,
    "BSTAR": 0.00023063,
    "MEAN_MOTION_DOT": 1.091e-05,
    "MEAN_MOTION_DDOT": 0
  },
  {
    "OBJECT_NAME": "BEESAT-1",
    "OBJECT_ID": "2009-051C",
    "EPOCH": "2025-06-14T06:18:23.977728",
    "MEAN_MOTION": 14.60761313,
    "ECCENTRICITY": 0.0004219,
    "INCLINATION": 98.4233,
    "RA_OF_ASC_NODE": 61.9314,
    "ARG_OF_PERICENTER": 299.5717,
    "MEAN_ANOMALY": 60.5062,
    "EPHEMERIS_TYPE": 0,
    "CLASSIFICATION_TYPE": "U",
    "NORAD_CAT_ID": 35933,
    "ELEMENT_SET_NO": 999,
    "REV_AT_EPOCH": 83545,
    "BSTAR": 0.00019818,
    "MEAN_MOTION_DOT": 9.18e-06,
    "MEAN_MOTION_DDOT": 0
  },
  {
    "OBJECT_NAME": "ITUPSAT1",
    "OBJECT_ID": "2009-051E",
    "EPOCH": "2025-06-14T16:40:35.709600",
    "MEAN_MOTION": 14.59558727,
    "ECCENTRICITY": 0.0006551,
    "INCLINATION": 98.4326,
    "RA_OF_ASC_NODE": 61.9074,
    "ARG_OF_PERICENTER": 305.0937,
    "MEAN_ANOMALY": 54.9648,
    "EPHEMERIS_TYPE": 0,
    "CLASSIFICATION_TYPE": "U",
    "NORAD_CAT_ID": 35935,
    "ELEMENT_SET_NO": 999,
    "REV_AT_EPOCH": 83514,
    "BSTAR": 0.00018092,
    "MEAN_MOTION_DOT": 8.11e-06,
    "MEAN_MOTION_DDOT": 0
  },
  {
    "OBJECT_NAME": "XIWANG-1 (HOPE-1)",
    "OBJECT_ID": "2009-072B",
    "EPOCH": "2025-06-14T11:34:22.146528",
    "MEAN_MOTION": 13.16425206,
    "ECCENTRICITY": 0.0007527,
    "INCLINATION": 100.349,
    "RA_OF_ASC_NODE": 121.1551,
    "ARG_OF_PERICENTER": 359.7164,
    "MEAN_ANOMALY": 0.3944,
    "EPHEMERIS_TYPE": 0,
    "CLASSIFICATION_TYPE": "U",
    "NORAD_CAT_ID": 36122,
    "ELEMENT_SET_NO": 999,
    "REV_AT_EPOCH": 74462,
    "BSTAR": -1.2112e-05,
    "MEAN_MOTION_DOT": -4.9e-07,
    "MEAN_MOTION_DDOT": 0
  },
  {
    "OBJECT_NAME": "O/OREOS (USA 219)",
    "OBJECT_ID": "2010-062C",
    "EPOCH": "2025-06-14T11:04:02.476992",
    "MEAN_MOTION": 14.91485746,
    "ECCENTRICITY": 0.0013408,
    "INCLINATION": 71.9696,
    "RA_OF_ASC_NODE": 191.8512,
    "ARG_OF_PERICENTER": 40.887,
    "MEAN_ANOMALY": 319.3302,
    "EPHEMERIS_TYPE": 0,
    "CLASSIFICATION_TYPE": "U",
    "NORAD_CAT_ID": 37224,
    "ELEMENT_SET_NO": 999,
    "REV_AT_EPOCH": 6177,
    "BSTAR": 0.0002257,
    "MEAN_MOTION_DOT": 2.202e-05,
    "MEAN_MOTION_DDOT": 0
  },
  {
    "OBJECT_NAME": "JUGNU",
    "OBJECT_ID": "2011-058B",
    "EPOCH": "2025-06-14T18:29:28.526784",
    "MEAN_MOTION": 14.13605126,
    "ECCENTRICITY": 0.001858,
    "INCLINATION": 19.9623,
    "RA_OF_ASC_NODE": 20.3166,
    "ARG_OF_PERICENTER": 339.1199,
    "MEAN_ANOMALY": 97.3777,
    "EPHEMERIS_TYPE": 0,
    "CLASSIFICATION_TYPE": "U",
    "NORAD_CAT_ID": 37839,
    "ELEMENT_SET_NO": 999,
    "REV_AT_EPOCH": 70708,
    "BSTAR": 6.7099e-05,
    "MEAN_MOTION_DOT": 3.95e-06,
    "MEAN_MOTION_DDOT": 0
  },
  {
    "OBJECT_NAME": "SRMSAT",
    "OBJECT_ID": "2011-058D",
    "EPOCH": "2025-06-14T13:32:17.592864",
    "MEAN_MOTION": 14.11437854,
    "ECCENTRICITY": 0.0011969,
    "INCLINATION": 19.9707,
    "RA_OF_ASC_NODE": 124.384,
    "ARG_OF_PERICENTER": 119.4776,
    "MEAN_ANOMALY": 37.3149,
    "EPHEMERIS_TYPE": 0,
    "CLASSIFICATION_TYPE": "U",
    "NORAD_CAT_ID": 37841,
    "ELEMENT_SET_NO": 999,
    "REV_AT_EPOCH": 70581,
    "BSTAR": 7.8604e-05,
    "MEAN_MOTION_DOT": 4.09e-06,
    "MEAN_MOTION_DDOT": 0
  },
  {
    "OBJECT_NAME": "STRAND-1",
    "OBJECT_ID": "2013-009E",
    "EPOCH": "2025-06-14T11:31:44.891616",
    "MEAN_MOTION": 14.36822226,
    "ECCENTRICITY": 0.0007545,
    "INCLINATION": 98.3826,
    "RA_OF_ASC_NODE": 350.0479,
    "ARG_OF_PERICENTER": 247.185,
    "MEAN_ANOMALY": 112.854,
    "EPHEMERIS_TYPE": 0,
    "CLASSIFICATION_TYPE": "U",
    "NORAD_CAT_ID": 39090,
    "ELEMENT_SET_NO": 999,
    "REV_AT_EPOCH": 64425,
    "BSTAR": 0.00011195,
    "MEAN_MOTION_DOT": 2.88e-06,
    "MEAN_MOTION_DDOT": 0
  }
]