MOZHAYETS 4 (RS-22)     
1 27939U 03042A   25165.77973053  .00000984  00000+0  16379-3 0  9998
2 27939  98.3284 335.3567 0011336   0.3903 126.7743 14.72366901161598
CUBESAT XI-V            
1 28895U 05043F   25165.34764953  .00001440  00000+0  24274-3 0  9994
2 28895  98.2507 309.7573 0013257 293.7885  66.1931 14.71030013 47646
CUTE-1.7+APD II (CO-65) 
1 32785U 08021C   25165.59352000  .00005089  00000+0  36781-3 0  9998
2 32785  97.7861 136.7931 0009490 186.0254 174.0859 15.04479776929838
SEEDS II (CO-66)        
1 32791U 08021J   25165.51326494  .00010714  00000+0  51760-3 0  9990
2 32791  97.7274 145.6642 0005167 132.0127 228.1548 15.18820819931245
YUBILEINY (RS-30)       
1 32953U 08025A   25165.87458399  .00000033  00000+0  16789-3 0  9998
2 32953  82.5027 223.8849 0019853  38.0214 322.2262 12.43165241774194
KKS-1 (KISEKI)          
1 33499U 09002H   25165.85866384  .00001413  00000+0  18652-3 0  9999
2 33499  98.1203  77.9964 0009229  46.8526 313.3456 14.81640352882207
SWISSCUBE               
1 35932U 09051B   25165.42345511  .00001091  00000+0  23063-3 0  9998
2 35932  98.4300  61.7492 0005606 280.5063  79.5505 14.61349459835427
BEESAT-1                
1 35933U 09051C   25165.26277752  .00000918  00000+0  19818-3 0  9992
2 35933  98.4233  61.9314 0004219 299.5717  60.5062 14.60761313835450
ITUPSAT1                
1 35935U 09051E   25165.69485775  .00000811  00000+0  18092-3 0  9992
2 35935  98.4326  61.9074 0006551 305.0937  54.9648 14.59558727835140
XIWANG-1 (HOPE-1)       
1 36122U 09072B   25165.48220077 -.00000049  00000+0 -12112-4 0  9996
2 36122 100.3490 121.1551 0007527 359.7164   0.3944 13.16425206744628
O/OREOS (USA 219)       
1 37224U 10062C   25165.46113978  .00002202  00000+0  22570-3 0  9999
2 37224  71.9696 191.8512 0013408  40.8870 319.3302 14.91485746 61779
JUGNU                   
1 37839U 11058B   25165.77046906  .00000395  00000+0  67099-4 0  9994
2 37839  19.9623  20.3166 0018580 339.1199  97.3777 14.13605126707088
SRMSAT                  
1 37841U 11058D   25165.56409251  .00000409  00000+0  78604-4 0  9990
2 37841  19.9707 124.3840 0011969 119.4776  37.3149 14.11437854705817
STRAND-1                
1 39090U 13009E   25165.48038069  .00000288  00000+0  11195-3 0  9998
2 39090  98.3826 350.0479 0007545 247.1850 112.8540 14.36822226644253
